OBJECT_NAME,OBJECT_ID,EPOCH,MEAN_MOTION,ECCENTRICITY,INCLINATION,RA_OF_ASC_NODE,ARG_OF_PERICENTER,MEAN_ANOMALY,EPHEMERIS_TYPE,CLASSIFICATION_TYPE,NORAD_CAT_ID,ELEMENT_SET_NO,REV_AT_EPOCH,BSTAR,MEAN_MOTION_DOT,MEAN_MOTION_DDOT
STARLINK-6203,2023-083Z,2026-07-11T03:14:14.680032,15.27587375,.00012082,43.0038,104.2998,286.9211,73.1508,0,U,56899,999,17065,-.5646399E-5,-.418E-5,0
STARLINK-6207,2023-083AA,2026-07-11T01:40:19.394688,15.27583659,.00014216,43.0034,94.2369,265.3709,94.6981,0,U,56900,999,17063,.65624784E-4,.1544E-4,0
STARLINK-6185,2023-083AB,2026-07-10T23:25:25.760640,15.27584561,.00013273,43.0021,105.6797,269.2662,90.8038,0,U,56901,999,17063,.34013556E-4,.674E-5,0
STARLINK-6195,2023-083AC,2026-07-11T01:44:00.812832,15.27584402,.00021421,43.0041,94.2484,247.4415,112.6211,0,U,56902,999,17077,.65529256E-4,.1541E-4,0
STARLINK-6192,2023-083AD,2026-07-11T03:29:02.780448,15.27574834,.00015459,43.0046,104.3693,273.4043,86.6632,0,U,56903,999,17066,.6730564E-5,-.77E-6,0
STARLINK-6193,2023-083AE,2026-07-10T22:06:06.105600,15.27571085,.00013646,43.0045,94.8341,269.6857,90.3839,0,U,56904,999,17064,-.6043821E-5,-.428E-5,0
STARLINK-6183,2023-083AF,2026-07-11T03:30:55.155744,15.27583093,.00012892,43.0024,93.0991,253.0977,106.9733,0,U,56905,999,17068,.4311693E-5,-.143E-5,0
STARLINK-6098,2023-083AG,2026-07-11T03:42:01.454400,15.27583808,.0001378,43.0000,93.1519,347.7729,12.3089,0,U,56906,999,17068,.4505388E-5,-.138E-5,0
STARLINK-6110,2023-083AH,2026-07-11T02:02:18.759840,15.27584374,.00013543,43.0025,93.4929,254.0599,106.0103,0,U,56907,999,17078,.21097794E-4,.319E-5,0
STARLINK-6186,2023-083AJ,2026-07-11T02:28:13.529568,15.27578560,.00016614,43.0041,93.6198,265.6360,94.4302,0,U,56908,999,17067,.85080401E-4,.208E-4,0
STARLINK-5999,2023-083AK,2026-07-09T04:19:02.960832,15.27567352,.00013404,43.0024,104.9880,264.7159,95.3540,0,U,56909,999,17048,.54050743E-4,.1225E-4,0
STARLINK-6179,2023-083AL,2026-07-11T02:39:19.143072,15.27571222,.00014539,43.0052,93.6794,263.6651,96.4035,0,U,56910,999,17066,-.3646392E-5,-.363E-5,0
STARLINK-6116,2023-083AM,2026-07-10T15:18:00.946080,15.27575320,.00009068,43.0020,96.1438,253.4306,106.6446,0,U,56911,999,17060,-.3430127E-5,-.356E-5,0
STARLINK-5805,2023-083AN,2026-07-10T22:11:38.741280,15.27578365,.00015836,43.0048,94.8635,275.9412,84.1259,0,U,56912,999,17064,.8638114E-5,-.25E-6,0
STARLINK-5950,2023-083AP,2026-07-10T23:14:20.796864,15.27584754,.00009962,43.0023,94.3290,261.8232,98.2507,0,U,56913,999,17065,-.4717426E-4,-.156E-4,0
STARLINK-5961,2023-083AQ,2026-07-11T01:54:54.713088,15.27583702,.00010055,43.0047,93.4448,294.3015,65.7732,0,U,56914,999,17067,.11493165E-4,.54E-6,0
STARLINK-5965,2023-083AR,2026-07-11T02:33:47.448288,15.27570627,.00011625,43.0039,93.6476,251.6983,108.3742,0,U,56915,999,17067,.9649164E-5,.3E-7,0
STARLINK-5973,2023-083AS,2026-07-10T02:59:33.908064,15.27588959,.00017165,43.0046,99.1729,263.4593,96.6063,0,U,56916,999,17049,.27309907E-4,.489E-5,0
STARLINK-5971,2023-083AT,2026-07-10T22:17:11.883264,15.27580231,.00028314,43.0051,94.8924,291.0273,69.0276,0,U,56917,999,17064,.348028E-5,-.167E-5,0
STARLINK-5951,2023-083AU,2026-07-09T03:10:33.478752,15.27580439,.00012199,43.0022,104.6227,266.1459,93.9253,0,U,56918,999,17037,.97129E-5,.5E-7,0
STARLINK-5966,2023-083AV,2026-07-11T14:33:42.494112,15.27578275,.0000839,43.0015,90.5198,278.0176,82.0581,0,U,56919,999,17075,-.1213E-4,-.596E-5,0
STARLINK-5960,2023-083AW,2026-07-10T23:18:03.026304,15.27587569,.00011112,43.0039,94.3409,262.2336,97.8390,0,U,56920,999,17065,.26430237E-4,.465E-5,0
STARLINK-5958,2023-083AX,2026-07-11T03:40:10.284384,15.27580293,.00009435,43.0020,93.1309,285.1149,74.9598,0,U,56921,999,17068,-.1404597E-5,-.301E-5,0
STARLINK-5937,2023-083AY,2026-07-10T02:02:24.748224,15.27583094,.00015125,43.0038,99.7315,268.4102,91.6577,0,U,56922,999,17051,.53868068E-4,.122E-4,0
STARLINK-5952,2023-083AZ,2026-07-11T02:20:48.760512,15.27580092,.0001182,43.0061,93.5749,270.5761,89.4955,0,U,56923,999,17067,-.14449102E-4,-.66E-5,0
STARLINK-5731,2023-083BA,2026-07-11T03:03:20.594880,15.27587455,.00024684,43.0040,93.7942,250.1974,109.8612,0,U,56924,999,17078,.35227823E-4,.707E-5,0
STARLINK-5733,2023-083BB,2026-07-10T23:34:41.932128,15.27581805,.00013781,43.0046,94.4299,265.9156,94.1539,0,U,56925,999,17065,.15104736E-4,.153E-5,0
STARLINK-5746,2023-083BC,2026-07-11T02:37:27.692256,15.27576086,.00014656,43.0049,93.6629,266.8353,93.2331,0,U,56926,999,17067,.14013741E-4,.123E-5,0
STARLINK-5808,2023-083BD,2026-07-11T10:53:47.377248,15.27573913,.00014292,43.0050,0.7959,279.3905,80.6785,0,U,56927,999,17177,-.3046844E-5,-.346E-5,0
STARLINK-5850,2023-088B,2026-07-11T05:40:31.278432,15.27575264,.00013873,43.0043,133.2543,289.4274,70.6428,0,U,57049,999,16941,.20948854E-4,.314E-5,0
