[ {"name": "STARLINK-6203", "line1": "1 56899U 23083Z   26192.13489213 -.00000418  00000+0 -56464-5 0  9998", "line2": "2 56899  43.0038 104.2998 0001208 286.9211  73.1508 15.27587375170653"}, {"name": "STARLINK-6207", "line1": "1 56900U 23083AA  26192.06966892  .00001544  00000+0  65625-4 0  9993", "line2": "2 56900  43.0034  94.2369 0001421 265.3709  94.6981 15.27583659170634"}, {"name": "STARLINK-6185", "line1": "1 56901U 23083AB  26191.97599260  .00000674  00000+0  34014-4 0  9995", "line2": "2 56901  43.0021 105.6797 0001327 269.2662  90.8038 15.27584561170633"}, {"name": "STARLINK-6195", "line1": "1 56902U 23083AC  26192.07223163  .00001541  00000+0  65529-4 0  9993", "line2": "2 56902  43.0041  94.2484 0002142 247.4415 112.6211 15.27584402170777"}, {"name": "STARLINK-6192", "line1": "1 56903U 23083AD  26192.14517107 -.00000077  00000+0  67306-5 0  9996", "line2": "2 56903  43.0046 104.3693 0001545 273.4043  86.6632 15.27574834170663"}, {"name": "STARLINK-6193", "line1": "1 56904U 23083AE  26191.92090400 -.00000428  00000+0 -60438-5 0  9994", "line2": "2 56904  43.0045  94.8341 0001364 269.6857  90.3839 15.27571085170649"}, {"name": "STARLINK-6183", "line1": "1 56905U 23083AF  26192.14647171 -.00000143  00000+0  43117-5 0  9991", "line2": "2 56905  43.0024  93.0991 0001289 253.0977 106.9733 15.27583093170688"}, {"name": "STARLINK-6098", "line1": "1 56906U 23083AG  26192.15418350 -.00000138  00000+0  45054-5 0  9994", "line2": "2 56906  43.0000  93.1519 0001378 347.7729  12.3089 15.27583808170683"}, {"name": "STARLINK-6110", "line1": "1 56907U 23083AH  26192.08493935  .00000319  00000+0  21098-4 0  9990", "line2": "2 56907  43.0025  93.4929 0001354 254.0599 106.0103 15.27584374170786"}, {"name": "STARLINK-6186", "line1": "1 56908U 23083AJ  26192.10293437  .00002080  00000+0  85080-4 0  9997", "line2": "2 56908  43.0041  93.6198 0001661 265.6360  94.4302 15.27578560170679"}, {"name": "STARLINK-5999", "line1": "1 56909U 23083AK  26190.17989538  .00001225  00000+0  54051-4 0  9991", "line2": "2 56909  43.0024 104.9880 0001340 264.7159  95.3540 15.27567352170485"}, {"name": "STARLINK-6179", "line1": "1 56910U 23083AL  26192.11063823 -.00000363  00000+0 -36464-5 0  9992", "line2": "2 56910  43.0052  93.6794 0001453 263.6651  96.4035 15.27571222170668"}, {"name": "STARLINK-6116", "line1": "1 56911U 23083AM  26191.63751095 -.00000356  00000+0 -34301-5 0  9994", "line2": "2 56911  43.0020  96.1438 0000906 253.4306 106.6446 15.27575320170600"}, {"name": "STARLINK-5805", "line1": "1 56912U 23083AN  26191.92475395 -.00000025  00000+0  86381-5 0  9990", "line2": "2 56912  43.0048  94.8635 0001583 275.9412  84.1259 15.27578365170642"}, {"name": "STARLINK-5950", "line1": "1 56913U 23083AP  26191.96829626 -.00001560  00000+0 -47174-4 0  9997", "line2": "2 56913  43.0023  94.3290 0000996 261.8232  98.2507 15.27584754170651"}, {"name": "STARLINK-5961", "line1": "1 56914U 23083AQ  26192.07979992  .00000054  00000+0  11493-4 0  9993", "line2": "2 56914  43.0047  93.4448 0001005 294.3015  65.7732 15.27583702170678"}, {"name": "STARLINK-5965", "line1": "1 56915U 23083AR  26192.10679917  .00000003  00000+0  96492-5 0  9999", "line2": "2 56915  43.0039  93.6476 0001162 251.6983 108.3742 15.27570627170674"}, {"name": "STARLINK-5973", "line1": "1 56916U 23083AS  26191.12469801  .00000489  00000+0  27310-4 0  9990", "line2": "2 56916  43.0046  99.1729 0001716 263.4593  96.6063 15.27588959170490"}, {"name": "STARLINK-5971", "line1": "1 56917U 23083AT  26191.92860976 -.00000167  00000+0  34803-5 0  9997", "line2": "2 56917  43.0051  94.8924 0002831 291.0273  69.0276 15.27580231170649"}, {"name": "STARLINK-5951", "line1": "1 56918U 23083AU  26190.13233193  .00000005  00000+0  97129-5 0  9995", "line2": "2 56918  43.0022 104.6227 0001219 266.1459  93.9253 15.27580439170373"}, {"name": "STARLINK-5966", "line1": "1 56919U 23083AV  26192.60674184 -.00000596  00000+0 -12130-4 0  9994", "line2": "2 56919  43.0015  90.5198 0000838 278.0176  82.0581 15.27578275170750"}, {"name": "STARLINK-5960", "line1": "1 56920U 23083AW  26191.97086836  .00000465  00000+0  26430-4 0  9997", "line2": "2 56920  43.0039  94.3409 0001111 262.2336  97.8390 15.27587569170650"}, {"name": "STARLINK-5958", "line1": "1 56921U 23083AX  26192.15289681 -.00000301  00000+0 -14046-5 0  9994", "line2": "2 56921  43.0020  93.1309 0000943 285.1149  74.9598 15.27580293170681"}, {"name": "STARLINK-5937", "line1": "1 56922U 23083AY  26191.08500866  .00001220  00000+0  53868-4 0  9990", "line2": "2 56922  43.0038  99.7315 0001512 268.4102  91.6577 15.27583094170513"}, {"name": "STARLINK-5952", "line1": "1 56923U 23083AZ  26192.09778658 -.00000660  00000+0 -14449-4 0  9990", "line2": "2 56923  43.0061  93.5749 0001182 270.5761  89.4955 15.27580092170678"}, {"name": "STARLINK-5731", "line1": "1 56924U 23083BA  26192.12732170  .00000707  00000+0  35228-4 0  9992", "line2": "2 56924  43.0040  93.7942 0002468 250.1974 109.8612 15.27587455170780"}, {"name": "STARLINK-5733", "line1": "1 56925U 23083BB  26191.98242977  .00000153  00000+0  15105-4 0  9994", "line2": "2 56925  43.0046  94.4299 0001378 265.9156  94.1539 15.27581805170658"}, {"name": "STARLINK-5746", "line1": "1 56926U 23083BC  26192.10934829  .00000123  00000+0  14014-4 0  9999", "line2": "2 56926  43.0049  93.6629 0001465 266.8353  93.2331 15.27576086170673"}, {"name": "STARLINK-5808", "line1": "1 56927U 23083BD  26192.45402057 -.00000346  00000+0 -30468-5 0  9992", "line2": "2 56927  43.0050   0.7959 0001429 279.3905  80.6785 15.27573913171774"}, {"name": "STARLINK-5850", "line1": "1 57049U 23088B   26192.23647313  .00000314  00000+0  20949-4 0  9990", "line2": "2 57049  43.0043 133.2543 0001387 289.4274  70.6428 15.27575264169419"}]